CCSDS_OMM_VERS = 2.0
CREATION_DATE  = 
ORIGINATOR     = 

OBJECT_NAME    = COSMOS 2058
OBJECT_ID      = 1990-010A
CENTER_NAME    = EARTH
REF_FRAME      = TEME
TIME_SYSTEM    = UTC
MEAN_ELEMENT_THEORY = SGP/SGP4

EPOCH          = 2026-03-10T23:20:08.280384
MEAN_MOTION    = 15.11335240
ECCENTRICITY   = .0009164
INCLINATION    = 82.4671
RA_OF_ASC_NODE = 46.1641
ARG_OF_PERICENTER = 340.2541
MEAN_ANOMALY   = 19.8333

EPHEMERIS_TYPE = 0
CLASSIFICATION_TYPE = U
NORAD_CAT_ID   = 20465
ELEMENT_SET_NO = 999
REV_AT_EPOCH   = 94243
BSTAR          = .28885E-3
MEAN_MOTION_DOT = .4899E-4
MEAN_MOTION_DDOT = 0

CCSDS_OMM_VERS = 2.0
CREATION_DATE  = 
ORIGINATOR     = 

OBJECT_NAME    = SL-14 R/B
OBJECT_ID      = 1990-010B
CENTER_NAME    = EARTH
REF_FRAME      = TEME
TIME_SYSTEM    = UTC
MEAN_ELEMENT_THEORY = SGP/SGP4

EPOCH          = 2026-03-11T00:51:35.604000
MEAN_MOTION    = 14.83569997
ECCENTRICITY   = .0018473
INCLINATION    = 82.4987
RA_OF_ASC_NODE = 266.1239
ARG_OF_PERICENTER = 297.5723
MEAN_ANOMALY   = 62.3615

EPHEMERIS_TYPE = 0
CLASSIFICATION_TYPE = U
NORAD_CAT_ID   = 20466
ELEMENT_SET_NO = 999
REV_AT_EPOCH   = 92868
BSTAR          = .5598E-4
MEAN_MOTION_DOT = .486E-5
MEAN_MOTION_DDOT = 0

CCSDS_OMM_VERS = 2.0
CREATION_DATE  = 
ORIGINATOR     = 

OBJECT_NAME    = SL-14 R/B
OBJECT_ID      = 1990-018B
CENTER_NAME    = EARTH
REF_FRAME      = TEME
TIME_SYSTEM    = UTC
MEAN_ELEMENT_THEORY = SGP/SGP4

EPOCH          = 2026-03-10T22:04:43.315392
MEAN_MOTION    = 14.82146372
ECCENTRICITY   = .0017666
INCLINATION    = 82.5205
RA_OF_ASC_NODE = 221.9395
ARG_OF_PERICENTER = 88.3207
MEAN_ANOMALY   = 272.0031

EPHEMERIS_TYPE = 0
CLASSIFICATION_TYPE = U
NORAD_CAT_ID   = 20511
ELEMENT_SET_NO = 999
REV_AT_EPOCH   = 92276
BSTAR          = .76456E-4
MEAN_MOTION_DOT = .634E-5
MEAN_MOTION_DDOT = 0

CCSDS_OMM_VERS = 2.0
CREATION_DATE  = 
ORIGINATOR     = 

OBJECT_NAME    = HST
OBJECT_ID      = 1990-037B
CENTER_NAME    = EARTH
REF_FRAME      = TEME
TIME_SYSTEM    = UTC
MEAN_ELEMENT_THEORY = SGP/SGP4

EPOCH          = 2026-03-11T04:22:48.454464
MEAN_MOTION    = 15.29510230
ECCENTRICITY   = .0001855
INCLINATION    = 28.4721
RA_OF_ASC_NODE = 29.8149
ARG_OF_PERICENTER = 140.1494
MEAN_ANOMALY   = 219.9238

EPHEMERIS_TYPE = 0
CLASSIFICATION_TYPE = U
NORAD_CAT_ID   = 20580
ELEMENT_SET_NO = 999
REV_AT_EPOCH   = 77354
BSTAR          = .29415E-3
MEAN_MOTION_DOT = .8894E-4
MEAN_MOTION_DDOT = 0

CCSDS_OMM_VERS = 2.0
CREATION_DATE  = 
ORIGINATOR     = 

OBJECT_NAME    = SL-16 R/B
OBJECT_ID      = 1990-046B
CENTER_NAME    = EARTH
REF_FRAME      = TEME
TIME_SYSTEM    = UTC
MEAN_ELEMENT_THEORY = SGP/SGP4

EPOCH          = 2026-03-11T00:58:04.900800
MEAN_MOTION    = 14.15011893
ECCENTRICITY   = .0016257
INCLINATION    = 70.9986
RA_OF_ASC_NODE = 295.0781
ARG_OF_PERICENTER = 297.7656
MEAN_ANOMALY   = 62.1818

EPHEMERIS_TYPE = 0
CLASSIFICATION_TYPE = U
NORAD_CAT_ID   = 20625
ELEMENT_SET_NO = 999
REV_AT_EPOCH   = 84858
BSTAR          = -.86526E-4
MEAN_MOTION_DOT = -.216E-5
MEAN_MOTION_DDOT = 0

CCSDS_OMM_VERS = 2.0
CREATION_DATE  = 
ORIGINATOR     = 

OBJECT_NAME    = COSMOS 2084
OBJECT_ID      = 1990-055A
CENTER_NAME    = EARTH
REF_FRAME      = TEME
TIME_SYSTEM    = UTC
MEAN_ELEMENT_THEORY = SGP/SGP4

EPOCH          = 2026-03-11T01:12:21.216384
MEAN_MOTION    = 15.05661150
ECCENTRICITY   = .0016887
INCLINATION    = 62.7921
RA_OF_ASC_NODE = 330.9381
ARG_OF_PERICENTER = 190.4078
MEAN_ANOMALY   = 169.6676

EPHEMERIS_TYPE = 0
CLASSIFICATION_TYPE = U
NORAD_CAT_ID   = 20663
ELEMENT_SET_NO = 999
REV_AT_EPOCH   = 93652
BSTAR          = .21534E-3
MEAN_MOTION_DOT = .2932E-4
MEAN_MOTION_DDOT = 0

CCSDS_OMM_VERS = 2.0
CREATION_DATE  = 
ORIGINATOR     = 

OBJECT_NAME    = SL-6 R/B(2)
OBJECT_ID      = 1990-055D
CENTER_NAME    = EARTH
REF_FRAME      = TEME
TIME_SYSTEM    = UTC
MEAN_ELEMENT_THEORY = SGP/SGP4

EPOCH          = 2026-03-10T21:38:30.124320
MEAN_MOTION    = 15.03601272
ECCENTRICITY   = .0024978
INCLINATION    = 62.7825
RA_OF_ASC_NODE = 249.7283
ARG_OF_PERICENTER = 347.3471
MEAN_ANOMALY   = 12.6998

EPHEMERIS_TYPE = 0
CLASSIFICATION_TYPE = U
NORAD_CAT_ID   = 20666
ELEMENT_SET_NO = 999
REV_AT_EPOCH   = 93837
BSTAR          = .19859E-3
MEAN_MOTION_DOT = .2544E-4
MEAN_MOTION_DDOT = 0

CCSDS_OMM_VERS = 2.0
CREATION_DATE  = 
ORIGINATOR     = 

OBJECT_NAME    = SL-8 R/B
OBJECT_ID      = 1990-078B
CENTER_NAME    = EARTH
REF_FRAME      = TEME
TIME_SYSTEM    = UTC
MEAN_ELEMENT_THEORY = SGP/SGP4

EPOCH          = 2026-03-11T04:31:08.667264
MEAN_MOTION    = 14.89118134
ECCENTRICITY   = .0361876
INCLINATION    = 82.9009
RA_OF_ASC_NODE = 249.9629
ARG_OF_PERICENTER = 8.9629
MEAN_ANOMALY   = 351.7816

EPHEMERIS_TYPE = 0
CLASSIFICATION_TYPE = U
NORAD_CAT_ID   = 20775
ELEMENT_SET_NO = 999
REV_AT_EPOCH   = 80952
BSTAR          = .51168E-3
MEAN_MOTION_DOT = .17367E-3
MEAN_MOTION_DDOT = 0

CCSDS_OMM_VERS = 2.0
CREATION_DATE  = 
ORIGINATOR     = 

OBJECT_NAME    = SL-8 R/B
OBJECT_ID      = 1991-006B
CENTER_NAME    = EARTH
REF_FRAME      = TEME
TIME_SYSTEM    = UTC
MEAN_ELEMENT_THEORY = SGP/SGP4

EPOCH          = 2026-03-11T05:09:51.550272
MEAN_MOTION    = 13.77494493
ECCENTRICITY   = .0022986
INCLINATION    = 82.9466
RA_OF_ASC_NODE = 168.9119
ARG_OF_PERICENTER = 34.1676
MEAN_ANOMALY   = 351.4711

EPHEMERIS_TYPE = 0
CLASSIFICATION_TYPE = U
NORAD_CAT_ID   = 21088
ELEMENT_SET_NO = 999
REV_AT_EPOCH   = 76428
BSTAR          = .66841E-4
MEAN_MOTION_DOT = .82E-6
MEAN_MOTION_DDOT = 0

CCSDS_OMM_VERS = 2.0
CREATION_DATE  = 
ORIGINATOR     = 

OBJECT_NAME    = OKEAN-3
OBJECT_ID      = 1991-039A
CENTER_NAME    = EARTH
REF_FRAME      = TEME
TIME_SYSTEM    = UTC
MEAN_ELEMENT_THEORY = SGP/SGP4

EPOCH          = 2026-03-11T03:24:21.178656
MEAN_MOTION    = 15.04818280
ECCENTRICITY   = .0013839
INCLINATION    = 82.5194
RA_OF_ASC_NODE = 335.4368
ARG_OF_PERICENTER = 332.5551
MEAN_ANOMALY   = 27.4943

EPHEMERIS_TYPE = 0
CLASSIFICATION_TYPE = U
NORAD_CAT_ID   = 21397
ELEMENT_SET_NO = 999
REV_AT_EPOCH   = 86525
BSTAR          = .3092E-3
MEAN_MOTION_DOT = .44E-4
MEAN_MOTION_DDOT = 0

CCSDS_OMM_VERS = 2.0
CREATION_DATE  = 
ORIGINATOR     = 

OBJECT_NAME    = COSMOS 2151
OBJECT_ID      = 1991-042A
CENTER_NAME    = EARTH
REF_FRAME      = TEME
TIME_SYSTEM    = UTC
MEAN_ELEMENT_THEORY = SGP/SGP4

EPOCH          = 2026-03-11T03:37:11.363808
MEAN_MOTION    = 15.00109862
ECCENTRICITY   = .001395
INCLINATION    = 82.4930
RA_OF_ASC_NODE = 82.2663
ARG_OF_PERICENTER = 59.4483
MEAN_ANOMALY   = 300.8115

EPHEMERIS_TYPE = 0
CLASSIFICATION_TYPE = U
NORAD_CAT_ID   = 21422
ELEMENT_SET_NO = 999
REV_AT_EPOCH   = 86341
BSTAR          = .1496E-3
MEAN_MOTION_DOT = .1895E-4
MEAN_MOTION_DDOT = 0

CCSDS_OMM_VERS = 2.0
CREATION_DATE  = 
ORIGINATOR     = 

OBJECT_NAME    = SL-14 R/B
OBJECT_ID      = 1991-042B
CENTER_NAME    = EARTH
REF_FRAME      = TEME
TIME_SYSTEM    = UTC
MEAN_ELEMENT_THEORY = SGP/SGP4

EPOCH          = 2026-03-10T21:44:10.745952
MEAN_MOTION    = 14.81831051
ECCENTRICITY   = .0015845
INCLINATION    = 82.4926
RA_OF_ASC_NODE = 219.0420
ARG_OF_PERICENTER = 234.3485
MEAN_ANOMALY   = 125.6254

EPHEMERIS_TYPE = 0
CLASSIFICATION_TYPE = U
NORAD_CAT_ID   = 21423
ELEMENT_SET_NO = 999
REV_AT_EPOCH   = 85325
BSTAR          = .7571E-4
MEAN_MOTION_DOT = .622E-5
MEAN_MOTION_DDOT = 0

